ORBCOMM-X               
1 21576U 91050C   26015.16036298  .00000192  00000+0  69534-4 0  9997
2 21576  98.3180  82.1706 0002443 261.4612  98.6301 14.43466367812698
ORBCOMM FM01            
1 23545U 95017A   26015.10993025  .00002950  00000+0  28689-3 0  9995
2 23545  69.9613 264.3900 0005063 311.6686  48.4036 14.93655968644111
ORBCOMM FM02            
1 23546U 95017B   26015.01370266  .00005003  00000+0  45952-3 0  9996
2 23546  69.9637 283.0464 0006263 320.3472  39.7226 14.95429713643778
ORBCOMM FM08            
1 25112U 97084A   26015.18246072  .00000919  00000+0  29123-3 0  9991
2 25112  45.0143  69.5248 0008403 247.6962 112.3000 14.46737231472069
ORBCOMM FM10            
1 25113U 97084B   26015.19742273  .00000844  00000+0  27226-3 0  9996
2 25113  45.0155  72.2339 0006424 222.8624 137.1728 14.46470163647206
ORBCOMM FM11            
1 25114U 97084C   26014.20318308  .00000896  00000+0  28816-3 0  9999
2 25114  45.0140  78.0354 0007184 217.4370 142.5982 14.46216370472019
ORBCOMM FM12            
1 25115U 97084D   26015.19880635  .00000799  00000+0  26125-3 0  9999
2 25115  45.0147  72.9809 0006309 222.1704 137.8663 14.46239946471956
ORBCOMM FM09            
1 25116U 97084E   26015.18266287  .00000796  00000+0  26128-3 0  9990
2 25116  45.0151  74.2292 0007177 210.1967 149.8472 14.46073938472156
