<?xml version="1.0" encoding="UTF-8"?>
<ndm xmlns:xsi="http://www.w3.org/2001/XMLSchema-instance" xsi:noNamespaceSchemaLocation="https://sanaregistry.org/r/ndmxml_unqualified/ndmxml-2.0.0-master-2.0.xsd">
<omm id="CCSDS_OMM_VERS" version="2.0">
<header><CREATION_DATE/><ORIGINATOR/></header><body><segment><metadata><OBJECT_NAME>ORBCOMM-X</OBJECT_NAME><OBJECT_ID>1991-050C</OBJECT_ID><CENTER_NAME>EARTH</CENTER_NAME><REF_FRAME>TEME</REF_FRAME><TIME_SYSTEM>UTC</TIME_SYSTEM><MEAN_ELEMENT_THEORY>SGP4</MEAN_ELEMENT_THEORY></metadata><data><meanElements><EPOCH>2026-01-15T03:50:55.361472</EPOCH><MEAN_MOTION>14.43466367</MEAN_MOTION><ECCENTRICITY>.0002443</ECCENTRICITY><INCLINATION>98.3180</INCLINATION><RA_OF_ASC_NODE>82.1706</RA_OF_ASC_NODE><ARG_OF_PERICENTER>261.4612</ARG_OF_PERICENTER><MEAN_ANOMALY>98.6301</MEAN_ANOMALY></meanElements><tleParameters><EPHEMERIS_TYPE>0</EPHEMERIS_TYPE><CLASSIFICATION_TYPE>U</CLASSIFICATION_TYPE><NORAD_CAT_ID>21576</NORAD_CAT_ID><ELEMENT_SET_NO>999</ELEMENT_SET_NO><REV_AT_EPOCH>81269</REV_AT_EPOCH><BSTAR>.69534E-4</BSTAR><MEAN_MOTION_DOT>.192E-5</MEAN_MOTION_DOT><MEAN_MOTION_DDOT>0</MEAN_MOTION_DDOT></tleParameters></data></segment></body></omm>
<omm id="CCSDS_OMM_VERS" version="2.0">
<header><CREATION_DATE/><ORIGINATOR/></header><body><segment><metadata><OBJECT_NAME>ORBCOMM FM01</OBJECT_NAME><OBJECT_ID>1995-017A</OBJECT_ID><CENTER_NAME>EARTH</CENTER_NAME><REF_FRAME>TEME</REF_FRAME><TIME_SYSTEM>UTC</TIME_SYSTEM><MEAN_ELEMENT_THEORY>SGP4</MEAN_ELEMENT_THEORY></metadata><data><meanElements><EPOCH>2026-01-15T02:38:17.973600</EPOCH><MEAN_MOTION>14.93655968</MEAN_MOTION><ECCENTRICITY>.0005063</ECCENTRICITY><INCLINATION>69.9613</INCLINATION><RA_OF_ASC_NODE>264.3900</RA_OF_ASC_NODE><ARG_OF_PERICENTER>311.6686</ARG_OF_PERICENTER><MEAN_ANOMALY>48.4036</MEAN_ANOMALY></meanElements><tleParameters><EPHEMERIS_TYPE>0</EPHEMERIS_TYPE><CLASSIFICATION_TYPE>U</CLASSIFICATION_TYPE><NORAD_CAT_ID>23545</NORAD_CAT_ID><ELEMENT_SET_NO>999</ELEMENT_SET_NO><REV_AT_EPOCH>64411</REV_AT_EPOCH><BSTAR>.28689E-3</BSTAR><MEAN_MOTION_DOT>.295E-4</MEAN_MOTION_DOT><MEAN_MOTION_DDOT>0</MEAN_MOTION_DDOT></tleParameters></data></segment></body></omm>
<omm id="CCSDS_OMM_VERS" version="2.0">
<header><CREATION_DATE/><ORIGINATOR/></header><body><segment><metadata><OBJECT_NAME>ORBCOMM FM02</OBJECT_NAME><OBJECT_ID>1995-017B</OBJECT_ID><CENTER_NAME>EARTH</CENTER_NAME><REF_FRAME>TEME</REF_FRAME><TIME_SYSTEM>UTC</TIME_SYSTEM><MEAN_ELEMENT_THEORY>SGP4</MEAN_ELEMENT_THEORY></metadata><data><meanElements><EPOCH>2026-01-15T00:19:43.909824</EPOCH><MEAN_MOTION>14.95429713</MEAN_MOTION><ECCENTRICITY>.0006263</ECCENTRICITY><INCLINATION>69.9637</INCLINATION><RA_OF_ASC_NODE>283.0464</RA_OF_ASC_NODE><ARG_OF_PERICENTER>320.3472</ARG_OF_PERICENTER><MEAN_ANOMALY>39.7226</MEAN_ANOMALY></meanElements><tleParameters><EPHEMERIS_TYPE>0</EPHEMERIS_TYPE><CLASSIFICATION_TYPE>U</CLASSIFICATION_TYPE><NORAD_CAT_ID>23546</NORAD_CAT_ID><ELEMENT_SET_NO>999</ELEMENT_SET_NO><REV_AT_EPOCH>64377</REV_AT_EPOCH><BSTAR>.45952E-3</BSTAR><MEAN_MOTION_DOT>.5003E-4</MEAN_MOTION_DOT><MEAN_MOTION_DDOT>0</MEAN_MOTION_DDOT></tleParameters></data></segment></body></omm>
<omm id="CCSDS_OMM_VERS" version="2.0">
<header><CREATION_DATE/><ORIGINATOR/></header><body><segment><metadata><OBJECT_NAME>ORBCOMM FM08</OBJECT_NAME><OBJECT_ID>1997-084A</OBJECT_ID><CENTER_NAME>EARTH</CENTER_NAME><REF_FRAME>TEME</REF_FRAME><TIME_SYSTEM>UTC</TIME_SYSTEM><MEAN_ELEMENT_THEORY>SGP4</MEAN_ELEMENT_THEORY></metadata><data><meanElements><EPOCH>2026-01-15T04:22:44.606208</EPOCH><MEAN_MOTION>14.46737231</MEAN_MOTION><ECCENTRICITY>.0008403</ECCENTRICITY><INCLINATION>45.0143</INCLINATION><RA_OF_ASC_NODE>69.5248</RA_OF_ASC_NODE><ARG_OF_PERICENTER>247.6962</ARG_OF_PERICENTER><MEAN_ANOMALY>112.3000</MEAN_ANOMALY></meanElements><tleParameters><EPHEMERIS_TYPE>0</EPHEMERIS_TYPE><CLASSIFICATION_TYPE>U</CLASSIFICATION_TYPE><NORAD_CAT_ID>25112</NORAD_CAT_ID><ELEMENT_SET_NO>999</ELEMENT_SET_NO><REV_AT_EPOCH>47206</REV_AT_EPOCH><BSTAR>.29123E-3</BSTAR><MEAN_MOTION_DOT>.919E-5</MEAN_MOTION_DOT><MEAN_MOTION_DDOT>0</MEAN_MOTION_DDOT></tleParameters></data></segment></body></omm>
<omm id="CCSDS_OMM_VERS" version="2.0">
<header><CREATION_DATE/><ORIGINATOR/></header><body><segment><metadata><OBJECT_NAME>ORBCOMM FM10</OBJECT_NAME><OBJECT_ID>1997-084B</OBJECT_ID><CENTER_NAME>EARTH</CENTER_NAME><REF_FRAME>TEME</REF_FRAME><TIME_SYSTEM>UTC</TIME_SYSTEM><MEAN_ELEMENT_THEORY>SGP4</MEAN_ELEMENT_THEORY></metadata><data><meanElements><EPOCH>2026-01-15T04:44:17.323872</EPOCH><MEAN_MOTION>14.46470163</MEAN_MOTION><ECCENTRICITY>.0006424</ECCENTRICITY><INCLINATION>45.0155</INCLINATION><RA_OF_ASC_NODE>72.2339</RA_OF_ASC_NODE><ARG_OF_PERICENTER>222.8624</ARG_OF_PERICENTER><MEAN_ANOMALY>137.1728</MEAN_ANOMALY></meanElements><tleParameters><EPHEMERIS_TYPE>0</EPHEMERIS_TYPE><CLASSIFICATION_TYPE>U</CLASSIFICATION_TYPE><NORAD_CAT_ID>25113</NORAD_CAT_ID><ELEMENT_SET_NO>999</ELEMENT_SET_NO><REV_AT_EPOCH>64720</REV_AT_EPOCH><BSTAR>.27226E-3</BSTAR><MEAN_MOTION_DOT>.844E-5</MEAN_MOTION_DOT><MEAN_MOTION_DDOT>0</MEAN_MOTION_DDOT></tleParameters></data></segment></body></omm>
<omm id="CCSDS_OMM_VERS" version="2.0">
<header><CREATION_DATE/><ORIGINATOR/></header><body><segment><metadata><OBJECT_NAME>ORBCOMM FM11</OBJECT_NAME><OBJECT_ID>1997-084C</OBJECT_ID><CENTER_NAME>EARTH</CENTER_NAME><REF_FRAME>TEME</REF_FRAME><TIME_SYSTEM>UTC</TIME_SYSTEM><MEAN_ELEMENT_THEORY>SGP4</MEAN_ELEMENT_THEORY></metadata><data><meanElements><EPOCH>2026-01-14T04:52:35.018112</EPOCH><MEAN_MOTION>14.46216370</MEAN_MOTION><ECCENTRICITY>.0007184</ECCENTRICITY><INCLINATION>45.0140</INCLINATION><RA_OF_ASC_NODE>78.0354</RA_OF_ASC_NODE><ARG_OF_PERICENTER>217.4370</ARG_OF_PERICENTER><MEAN_ANOMALY>142.5982</MEAN_ANOMALY></meanElements><tleParameters><EPHEMERIS_TYPE>0</EPHEMERIS_TYPE><CLASSIFICATION_TYPE>U</CLASSIFICATION_TYPE><NORAD_CAT_ID>25114</NORAD_CAT_ID><ELEMENT_SET_NO>999</ELEMENT_SET_NO><REV_AT_EPOCH>47201</REV_AT_EPOCH><BSTAR>.28816401E-3</BSTAR><MEAN_MOTION_DOT>.896E-5</MEAN_MOTION_DOT><MEAN_MOTION_DDOT>0</MEAN_MOTION_DDOT></tleParameters></data></segment></body></omm>
<omm id="CCSDS_OMM_VERS" version="2.0">
<header><CREATION_DATE/><ORIGINATOR/></header><body><segment><metadata><OBJECT_NAME>ORBCOMM FM12</OBJECT_NAME><OBJECT_ID>1997-084D</OBJECT_ID><CENTER_NAME>EARTH</CENTER_NAME><REF_FRAME>TEME</REF_FRAME><TIME_SYSTEM>UTC</TIME_SYSTEM><MEAN_ELEMENT_THEORY>SGP4</MEAN_ELEMENT_THEORY></metadata><data><meanElements><EPOCH>2026-01-15T04:46:16.868640</EPOCH><MEAN_MOTION>14.46239946</MEAN_MOTION><ECCENTRICITY>.0006309</ECCENTRICITY><INCLINATION>45.0147</INCLINATION><RA_OF_ASC_NODE>72.9809</RA_OF_ASC_NODE><ARG_OF_PERICENTER>222.1704</ARG_OF_PERICENTER><MEAN_ANOMALY>137.8663</MEAN_ANOMALY></meanElements><tleParameters><EPHEMERIS_TYPE>0</EPHEMERIS_TYPE><CLASSIFICATION_TYPE>U</CLASSIFICATION_TYPE><NORAD_CAT_ID>25115</NORAD_CAT_ID><ELEMENT_SET_NO>999</ELEMENT_SET_NO><REV_AT_EPOCH>47195</REV_AT_EPOCH><BSTAR>.26125E-3</BSTAR><MEAN_MOTION_DOT>.799E-5</MEAN_MOTION_DOT><MEAN_MOTION_DDOT>0</MEAN_MOTION_DDOT></tleParameters></data></segment></body></omm>
<omm id="CCSDS_OMM_VERS" version="2.0">
<header><CREATION_DATE/><ORIGINATOR/></header><body><segment><metadata><OBJECT_NAME>ORBCOMM FM09</OBJECT_NAME><OBJECT_ID>1997-084E</OBJECT_ID><CENTER_NAME>EARTH</CENTER_NAME><REF_FRAME>TEME</REF_FRAME><TIME_SYSTEM>UTC</TIME_SYSTEM><MEAN_ELEMENT_THEORY>SGP4</MEAN_ELEMENT_THEORY></metadata><data><meanElements><EPOCH>2026-01-15T04:23:02.071968</EPOCH><MEAN_MOTION>14.46073938</MEAN_MOTION><ECCENTRICITY>.0007177</ECCENTRICITY><INCLINATION>45.0151</INCLINATION><RA_OF_ASC_NODE>74.2292</RA_OF_ASC_NODE><ARG_OF_PERICENTER>210.1967</ARG_OF_PERICENTER><MEAN_ANOMALY>149.8472</MEAN_ANOMALY></meanElements><tleParameters><EPHEMERIS_TYPE>0</EPHEMERIS_TYPE><CLASSIFICATION_TYPE>U</CLASSIFICATION_TYPE><NORAD_CAT_ID>25116</NORAD_CAT_ID><ELEMENT_SET_NO>999</ELEMENT_SET_NO><REV_AT_EPOCH>47215</REV_AT_EPOCH><BSTAR>.26128E-3</BSTAR><MEAN_MOTION_DOT>.796E-5</MEAN_MOTION_DOT><MEAN_MOTION_DDOT>0</MEAN_MOTION_DDOT></tleParameters></data></segment></body></omm>

</ndm>
